[{"OBJECT_NAME":"STARLINK-1434","OBJECT_ID":"2020-035BH","EPOCH":"2026-03-09T05:47:35.213856","MEAN_MOTION":15.26724568,"ECCENTRICITY":0.00053438,"INCLINATION":53.0547,"RA_OF_ASC_NODE":22.1128,"ARG_OF_PERICENTER":88.04,"MEAN_ANOMALY":272.121,"EPHEMERIS_TYPE":0,"CLASSIFICATION_TYPE":"U","NORAD_CAT_ID":45712,"ELEMENT_SET_NO":999,"REV_AT_EPOCH":31932,"BSTAR":0.0020295208,"MEAN_MOTION_DOT":0.00054112,"MEAN_MOTION_DDOT":0},{"OBJECT_NAME":"STARLINK-31628","OBJECT_ID":"2024-057Y","EPOCH":"2026-03-09T08:06:06.183648","MEAN_MOTION":15.27576972,"ECCENTRICITY":0.00016158,"INCLINATION":43.0018,"RA_OF_ASC_NODE":189.1939,"ARG_OF_PERICENTER":264.7725,"MEAN_ANOMALY":95.2943,"EPHEMERIS_TYPE":0,"CLASSIFICATION_TYPE":"U","NORAD_CAT_ID":59342,"ELEMENT_SET_NO":999,"REV_AT_EPOCH":10978,"BSTAR":1.9748271e-5,"MEAN_MOTION_DOT":2.81e-6,"MEAN_MOTION_DDOT":0}]
